NORAD_CAT_ID,OBJECT_NAME,OBJECT_TYPE,EPOCH,MEAN_MOTION,ECCENTRICITY,INCLINATION,RA_OF_ASC_NODE,ARG_OF_PERICENTER,MEAN_ANOMALY,BSTAR,MEAN_MOTION_DOT,MEAN_MOTION_DDOT,TLE_LINE0,TLE_LINE1,TLE_LINE2,SEMIMAJOR_AXIS,PERIOD,APOGEE,PERIGEE,DECAYED
52667.0,STARLINK-4076,PAYLOAD,2023-08-10 20:33:44,15.08840156,7.55e-05,53.2167,62.1755,78.6995,281.4082,5.3285e-05,5.6e-06,0.0,0 STARLINK-4076,1 52667U 22053M   23222.85676753  .00000560  00000-0  53285-4 0  9994,2 52667  53.2167  62.1755 0000755  78.6995 281.4082 15.08840156 68860,6917.88,95.438,540.267,539.223,0.0
52667.0,STARLINK-4076,PAYLOAD,2023-08-11 23:35:17,15.08849394,8.16e-05,53.2168,57.1192,78.3005,281.8079,0.00012157,1.648e-05,0.0,0 STARLINK-4076,1 52667U 22053M   23223.98284511  .00001648  00000-0  12157-3 0  9996,2 52667  53.2168  57.1192 0000816  78.3005 281.8079 15.08849394 69030,6917.852,95.437,540.281,539.152,0.0
52667.0,STARLINK-4076,PAYLOAD,2023-08-12 07:32:13,15.0884014,9.2e-05,53.216,55.6329,90.9309,269.1789,0.00011394,1.526e-05,0.0,0 STARLINK-4076,1 52667U 22053M   23224.31405019  .00001526  00000-0  11394-3 0  9999,2 52667  53.2160  55.6329 0000920  90.9309 269.1789 15.08840140 69082,6917.88,95.438,540.381,539.109,0.0
52667.0,STARLINK-4076,PAYLOAD,2023-08-13 18:30:43,15.08837329,8.23e-05,53.2163,49.0913,87.454,272.6546,5.9832e-05,6.65e-06,0.0,0 STARLINK-4076,1 52667U 22053M   23225.77133347  .00000665  00000-0  59832-4 0  9995,2 52667  53.2163  49.0913 0000823  87.4540 272.6546 15.08837329 69301,6917.889,95.438,540.323,539.184,0.0
52667.0,STARLINK-4076,PAYLOAD,2023-08-14 18:21:29,15.08845748,8.59e-05,53.2164,44.6309,85.3204,274.7886,0.00017873,2.558e-05,0.0,0 STARLINK-4076,1 52667U 22053M   23226.76492995  .00002558  00000-0  17873-3 0  9993,2 52667  53.2164  44.6309 0000859  85.3204 274.7886 15.08845748 69455,6917.863,95.437,540.322,539.134,0.0
52667.0,STARLINK-4076,PAYLOAD,2023-08-15 05:29:12,15.08834931,8.84e-05,53.2169,42.5483,87.0229,273.0864,0.00036519,5.528e-05,0.0,0 STARLINK-4076,1 52667U 22053M   23227.22861554  .00005528  00000-0  36519-3 0  9994,2 52667  53.2169  42.5483 0000884  87.0229 273.0864 15.08834931 69522,6917.896,95.438,540.372,539.149,0.0
52667.0,STARLINK-4076,PAYLOAD,2023-08-16 18:03:04,15.08838079,7.19e-05,53.218,35.7099,76.4056,283.7016,5.306e-05,5.57e-06,0.0,0 STARLINK-4076,1 52667U 22053M   23228.75213607  .00000557  00000-0  53060-4 0  9991,2 52667  53.2180  35.7099 0000719  76.4056 283.7016 15.08838079 69758,6917.886,95.438,540.249,539.254,0.0
52667.0,STARLINK-4076,PAYLOAD,2023-08-17 17:53:51,15.08845773,8.3e-05,53.2174,31.2503,75.5538,284.5546,0.00014688,2.051e-05,0.0,0 STARLINK-4076,1 52667U 22053M   23229.74572995  .00002051  00000-0  14688-3 0  9992,2 52667  53.2174  31.2503 0000830  75.5538 284.5546 15.08845773 69904,6917.863,95.437,540.302,539.154,0.0
52667.0,STARLINK-4076,PAYLOAD,2023-08-18 06:36:56,15.08837488,0.000111,53.2163,28.8714,84.8598,275.252,8.5228e-05,1.069e-05,0.0,0 STARLINK-4076,1 52667U 22053M   23230.27565535  .00001069  00000-0  85228-4 0  9991,2 52667  53.2163  28.8714 0001110  84.8598 275.2520 15.08837488 69980,6917.888,95.438,540.521,538.985,0.0
52667.0,STARLINK-4076,PAYLOAD,2023-08-19 09:38:29,15.08839843,9.05e-05,53.2171,23.8164,85.3511,274.7584,3.4939e-05,2.68e-06,0.0,0 STARLINK-4076,1 52667U 22053M   23231.40173519  .00000268  00000-0  34939-4 0  9997,2 52667  53.2171  23.8164 0000905  85.3511 274.7584 15.08839843 70157,6917.881,95.438,540.372,539.12,0.0
52667.0,STARLINK-4076,PAYLOAD,2023-08-19 19:10:48,15.08848209,8.51e-05,53.2174,22.0319,83.5304,276.5785,0.00013337,1.836e-05,0.0,0 STARLINK-4076,1 52667U 22053M   23231.79917171  .00001836  00000-0  13337-3 0  9999,2 52667  53.2174  22.0319 0000851  83.5304 276.5785 15.08848209 70219,6917.855,95.437,540.309,539.132,0.0
52667.0,STARLINK-4076,PAYLOAD,2023-08-20 04:43:07,15.08842027,0.0001272,53.2164,20.2432,111.7629,248.3499,0.00010215,1.338e-05,0.0,0 STARLINK-4076,1 52667U 22053M   23232.19661318  .00001338  00000-0  10215-3 0  9992,2 52667  53.2164  20.2432 0001272 111.7629 248.3499 15.08842027 70273,6917.874,95.437,540.619,538.859,0.0
52667.0,STARLINK-4076,PAYLOAD,2023-08-21 09:20:04,15.0883795,0.0001073,53.2165,14.8946,80.7384,279.373,9.8567e-05,1.281e-05,0.0,0 STARLINK-4076,1 52667U 22053M   23233.38894040  .00001281  00000-0  98567-4 0  9998,2 52667  53.2165  14.8946 0001073  80.7384 279.3730 15.08837950 70456,6917.887,95.438,540.494,539.009,0.0
52667.0,STARLINK-4076,PAYLOAD,2023-08-22 09:10:51,15.08836409,0.0001001,53.2172,10.4348,76.3706,283.7398,0.00014173,1.968e-05,0.0,0 STARLINK-4076,1 52667U 22053M   23234.38254502  .00001968  00000-0  14173-3 0  9994,2 52667  53.2172  10.4348 0001001  76.3706 283.7398 15.08836409 70606,6917.891,95.438,540.449,539.064,0.0
52667.0,STARLINK-4076,PAYLOAD,2023-08-23 12:12:25,15.08843955,0.00012,53.2171,5.381,56.5766,303.5341,0.00020727,3.013e-05,0.0,0 STARLINK-4076,1 52667U 22053M   23235.50862504  .00003013  00000-0  20727-3 0  9991,2 52667  53.2171   5.3810 0001200  56.5766 303.5341 15.08843955 70770,6917.868,95.437,540.563,538.903,0.0
52667.0,STARLINK-4076,PAYLOAD,2023-08-24 12:03:12,15.08843895,0.000105,53.2176,0.9166,102.9166,257.1943,0.00013576,1.874e-05,0.0,0 STARLINK-4076,1 52667U 22053M   23236.50222246  .00001874  00000-0  13576-3 0  9992,2 52667  53.2176   0.9166 0001050 102.9166 257.1943 15.08843895 70925,6917.868,95.437,540.46,539.007,0.0
52667.0,STARLINK-4076,PAYLOAD,2023-08-25 13:29:22,15.08844767,0.0001029,53.2173,356.1608,85.5426,274.5683,-4.2582e-05,-9.65e-06,0.0,0 STARLINK-4076,1 52667U 22053M   23237.56206249 -.00000965  00000-0 -42582-4 0  9996,2 52667  53.2173 356.1608 0001029  85.5426 274.5683 15.08844767 71081,6917.866,95.437,540.443,539.019,0.0
52667.0,STARLINK-4076,PAYLOAD,2023-08-25 18:15:31,15.08842774,0.0001095,53.2174,355.2677,92.1171,267.9946,5.5744e-05,6e-06,0.0,0 STARLINK-4076,1 52667U 22053M   23237.76078270  .00000600  00000-0  55744-4 0  9997,2 52667  53.2174 355.2677 0001095  92.1171 267.9946 15.08842774 71110,6917.872,95.437,540.494,538.979,0.0
52667.0,STARLINK-4076,PAYLOAD,2023-08-26 06:58:37,15.08828128,0.0001187,53.2171,352.888,108.6342,251.4779,0.00012113,1.64e-05,0.0,0 STARLINK-4076,1 52667U 22053M   23238.29071033  .00001640  00000-0  12113-3 0  9993,2 52667  53.2171 352.8880 0001187 108.6342 251.4779 15.08828128 71198,6917.917,95.438,540.603,538.961,0.0
52667.0,STARLINK-4076,PAYLOAD,2023-08-26 11:44:46,15.08836592,0.0001027,53.2175,351.9989,97.9065,262.2043,0.00012075,1.634e-05,0.0,0 STARLINK-4076,1 52667U 22053M   23238.48942907  .00001634  00000-0  12075-3 0  9991,2 52667  53.2175 351.9989 0001027  97.9065 262.2043 15.08836592 71229,6917.891,95.438,540.466,539.045,0.0
52667.0,STARLINK-4076,PAYLOAD,2023-08-27 14:46:19,15.08850204,0.0001038,53.2171,346.9442,85.6914,274.4196,0.00020282,2.942e-05,0.0,0 STARLINK-4076,1 52667U 22053M   23239.61550107  .00002942  00000-0  20282-3 0  9996,2 52667  53.2171 346.9442 0001038  85.6914 274.4196 15.08850204 71390,6917.849,95.437,540.432,538.996,0.0
52667.0,STARLINK-4076,PAYLOAD,2023-08-28 14:37:06,15.08847193,0.0001058,53.2177,342.4835,92.0745,268.0368,0.00011334,1.517e-05,0.0,0 STARLINK-4076,1 52667U 22053M   23240.60910076  .00001517  00000-0  11334-3 0  9997,2 52667  53.2177 342.4835 0001058  92.0745 268.0368 15.08847193 71549,6917.858,95.437,540.455,538.991,0.0
52667.0,STARLINK-4076,PAYLOAD,2023-08-29 06:30:58,15.08841846,0.0001206,53.2171,339.5118,81.1617,278.9512,4.8416e-05,4.83e-06,0.0,0 STARLINK-4076,1 52667U 22053M   23241.27150578  .00000483  00000-0  48416-4 0  9997,2 52667  53.2171 339.5118 0001206  81.1617 278.9512 15.08841846 71647,6917.875,95.437,540.574,538.905,0.0
52667.0,STARLINK-4076,PAYLOAD,2023-08-29 12:52:30,15.08840385,0.0001171,53.2175,338.3215,89.4487,270.664,0.00012168,1.649e-05,0.0,0 STARLINK-4076,1 52667U 22053M   23241.53646651  .00001649  00000-0  12168-3 0  9997,2 52667  53.2175 338.3215 0001171  89.4487 270.6640 15.08840385 71685,6917.879,95.438,540.554,538.934,0.0
52667.0,STARLINK-4076,PAYLOAD,2023-08-30 17:29:27,15.08844724,0.0001121,53.2176,332.9679,79.0897,281.0221,0.00012104,1.639e-05,0.0,0 STARLINK-4076,1 52667U 22053M   23242.72878643  .00001639  00000-0  12104-3 0  9996,2 52667  53.2176 332.9679 0001121  79.0897 281.0221 15.08844724 71867,6917.866,95.437,540.506,538.955,0.0
52667.0,STARLINK-4076,PAYLOAD,2023-08-31 09:23:18,15.08839821,0.0001224,53.217,329.9938,76.7143,283.3985,0.00011854,1.599e-05,0.0,0 STARLINK-4076,1 52667U 22053M   23243.39118828  .00001599  00000-0  11854-3 0  9998,2 52667  53.2170 329.9938 0001224  76.7143 283.3985 15.08839821 71962,6917.881,95.438,540.593,538.899,0.0
52667.0,STARLINK-4076,PAYLOAD,2023-09-01 12:25:00,15.08688611,0.0001407,53.2186,324.9447,291.6845,68.3997,0.00017733,2.524e-05,0.0,0 STARLINK-4076,1 52667U 22053M   23244.51736917  .00002524  00000-0  17733-3 0  9999,2 52667  53.2186 324.9447 0001407 291.6845  68.3997 15.08688611 72132,6918.343,95.447,541.182,539.235,0.0
52667.0,STARLINK-4076,PAYLOAD,2023-09-01 17:11:00,15.08853482,0.0001043,53.2181,324.0463,82.5597,277.5514,0.000177,2.531e-05,0.0,0 STARLINK-4076,1 52667U 22053M   23244.71597974  .00002531  00000-0  17700-3 0  9991,2 52667  53.2181 324.0463 0001043  82.5597 277.5514 15.08853482 72165,6917.839,95.437,540.426,538.983,0.0
52667.0,STARLINK-4076,PAYLOAD,2023-09-01 21:57:11,15.08837371,3.63e-05,53.2172,323.1578,185.5791,174.5197,-6.8218e-07,-2.98e-06,0.0,0 STARLINK-4076,1 52667U 22053M   23244.91471324 -.00000298  00000-0 -68218-6 0  9996,2 52667  53.2172 323.1578 0000363 185.5791 174.5197 15.08837371 72191,6917.888,95.438,540.005,539.502,0.0
52667.0,STARLINK-4076,PAYLOAD,2023-09-02 15:26:24,15.08849634,0.0001204,53.2172,319.8818,89.9361,270.1769,0.00012585,1.716e-05,0.0,0 STARLINK-4076,1 52667U 22053M   23245.64334127  .00001716  00000-0  12585-3 0  9993,2 52667  53.2172 319.8818 0001204  89.9361 270.1769 15.08849634 72301,6917.851,95.437,540.549,538.883,0.0
